[
    {
        "Altitude(m)": 612513.9371882902,
        "Argument of Periapsis(deg)": 0.0,
        "Eccentricity": 0.0,
        "Inclination(deg)": 60.0,
        "Latitude(deg)": -28.1359813091118,
        "Longitude(deg)": -157.0869366977353,
        "Mean Anomaly(deg)": 212.72730000000004,
        "RAAN(deg)": 105.0,
        "Satellite Name": "Test1 475",
        "Satellite Number": 475,
        "Semi-Major Axis(m)": 6980739.136638005,
        "Time(s)": 0
    },
    {
        "Altitude(m)": 612708.3054183136,
        "Argument of Periapsis(deg)": 0.00010418945913296404,
        "Eccentricity": 0.0,
        "Inclination(deg)": 60.0,
        "Latitude(deg)": -28.647721073309828,
        "Longitude(deg)": -156.7297073726075,
        "Mean Anomaly(deg)": 213.34740614546183,
        "RAAN(deg)": 104.99957995086028,
        "Satellite Name": "Test1 475",
        "Satellite Number": 475,
        "Semi-Major Axis(m)": 6980739.136638005,
        "Time(s)": 10
    }
]